[{"OBJECT_NAME":"NORSAT 3","OBJECT_ID":"2021-034E","EPOCH":"2026-03-09T22:23:32.431200","MEAN_MOTION":15.04338407,"ECCENTRICITY":0.0005858,"INCLINATION":97.5427,"RA_OF_ASC_NODE":128.5959,"ARG_OF_PERICENTER":280.8366,"MEAN_ANOMALY":79.2201,"EPHEMERIS_TYPE":0,"CLASSIFICATION_TYPE":"U","NORAD_CAT_ID":48272,"ELEMENT_SET_NO":999,"REV_AT_EPOCH":26491,"BSTAR":0.00030361478,"MEAN_MOTION_DOT":4.174e-5,"MEAN_MOTION_DDOT":0},{"OBJECT_NAME":"STARLINK-4338","OBJECT_ID":"2022-077N","EPOCH":"2026-03-09T22:24:49.276224","MEAN_MOTION":15.05645383,"ECCENTRICITY":0.00014566,"INCLINATION":97.6023,"RA_OF_ASC_NODE":251.4217,"ARG_OF_PERICENTER":87.4689,"MEAN_ANOMALY":272.6704,"EPHEMERIS_TYPE":0,"CLASSIFICATION_TYPE":"U","NORAD_CAT_ID":53055,"ELEMENT_SET_NO":999,"REV_AT_EPOCH":20101,"BSTAR":1.16739e-7,"MEAN_MOTION_DOT":-5.9e-7,"MEAN_MOTION_DDOT":0}]
